<?xml version="1.0" encoding="UTF-8"?>
<osm version="0.6" generator="Overpass API 0.7.56.1004 6cd3eaec">
<note>The data included in this document is from www.openstreetmap.org. The data is made available under ODbL.</note>
<meta osm_base="2020-04-26T17:00:02Z" areas="2020-03-06T11:03:01Z"/>

  <node id="1410495345" lat="43.1326241" lon="12.3621422">
    <tag k="addr:city" v="Perugia"/>
    <tag k="addr:country" v="IT"/>
    <tag k="addr:housenumber" v="84"/>
    <tag k="addr:postcode" v="06131"/>
    <tag k="addr:street" v="Strada di Ponte d'Oddi"/>
    <tag k="amenity" v="restaurant"/>
    <tag k="contact:facebook" v="https://www.facebook.com/leormecicchetteria/"/>
    <tag k="cuisine" v="burger;pizza"/>
    <tag k="delivery:covid19" v="yes"/>
    <tag k="email" v="graziemilletti@gmail.com"/>
    <tag k="name" v="Le Orme Cicchetteria"/>
    <tag k="opening_hours:delivery:covid19" v="Tu-Su 18:00-22:00"/>
    <tag k="phone" v="+39 075 46405"/>
    <tag k="phone:mobile" v="+39 392 9656538"/>
  </node>
  <node id="1853514005" lat="43.1018270" lon="12.3450103">
    <tag k="addr:city" v="Perugia"/>
    <tag k="addr:housenumber" v="106"/>
    <tag k="addr:postcode" v="06127"/>
    <tag k="addr:street" v="Strada Trasimeno Ovest"/>
    <tag k="amenity" v="restaurant"/>
    <tag k="contact:whatsapp" v="+39 347 6343225"/>
    <tag k="cuisine" v="italian;pizza;regional"/>
    <tag k="delivery:covid19" v="yes"/>
    <tag k="email" v="ilbalestruccio@libero.it"/>
    <tag k="name" v="Il Balestruccio"/>
    <tag k="opening_hours" v="Tu-Su 12:00-15:00,19:00-23:00"/>
    <tag k="opening_hours:covid19" v="off"/>
    <tag k="phone" v="+39 075 5058019"/>
    <tag k="website" v="www.ilbalestruccio.it"/>
  </node>
  <node id="1972034399" lat="43.1596393" lon="12.3316131">
    <tag k="addr:city" v="Perugia"/>
    <tag k="addr:housenumber" v="39p"/>
    <tag k="addr:postcode" v="06070"/>
    <tag k="addr:street" v="Strada Cenerente - Colle Umberto"/>
    <tag k="amenity" v="pub"/>
    <tag k="contact:facebook" v="https://www.facebook.com/notoriouspubperugia/"/>
    <tag k="delivery:covid19" v="yes"/>
    <tag k="email" v="nicolagamannossi@gmail.com"/>
    <tag k="name" v="Notorious Pub"/>
    <tag k="phone" v="+39 075 690341"/>
    <tag k="phone:mobile" v="+39 333 2117379"/>
  </node>
  <node id="2133499004" lat="43.1621693" lon="12.4642647">
    <tag k="addr:city" v="Ramazzano"/>
    <tag k="addr:housenumber" v="4"/>
    <tag k="addr:postcode" v="06080"/>
    <tag k="addr:street" v="Strada Stazione di Ramazzano"/>
    <tag k="amenity" v="restaurant"/>
    <tag k="cuisine" v="italian;pizza"/>
    <tag k="delivery:covid19" v="yes"/>
    <tag k="email:covid19" v="trilogy.asporto@gmail.com"/>
    <tag k="name" v="Trilogy Ristorante Pizzeria"/>
    <tag k="opening_hours" v="Mo-Su 00:00-02:00,19:00-24:00; Tu-Fr 00:00-01:00,19:00-24:00"/>
    <tag k="opening_hours:covid19" v="off"/>
    <tag k="opening_hours:delivery:covid19" v="Tu-Th 17:00-21:30; Fr-Su 17:00-22:00"/>
    <tag k="operator" v="Andrea e Maurizio Zaroli s.n.c."/>
    <tag k="phone:covid19" v="+39 333 7677337"/>
    <tag k="phone:mobile" v="+39 333 3540052"/>
    <tag k="website" v="https://www.trilogyclub.it/"/>
    <tag k="website:covid19" v="https://trilogy.ordini.online/"/>
  </node>
  <node id="2443483100" lat="43.1063305" lon="12.3777349">
    <tag k="addr:city" v="Perugia"/>
    <tag k="addr:housenumber" v="1/F"/>
    <tag k="addr:postcode" v="06124"/>
    <tag k="addr:street" v="Via Cortonese"/>
    <tag k="amenity" v="cafe"/>
    <tag k="contact:facebook" v="https://www.facebook.com/PasticceriaEtrusca/"/>
    <tag k="cuisine" v="ice_cream"/>
    <tag k="delivery:covid19" v="yes"/>
    <tag k="email" v="pasticceriaetrusca@live.it"/>
    <tag k="name" v="Pasticceria Etrusca"/>
    <tag k="opening_hours:covid19" v="off"/>
    <tag k="phone" v="+39 075 5052524"/>
    <tag k="phone:mobile" v="+39 393 9082603"/>
    <tag k="shop" v="pastry"/>
    <tag k="website" v="http://www.pasticceriaetrusca.it/"/>
  </node>
  <node id="2881724861" lat="43.0993857" lon="12.3911954">
    <tag k="addr:city" v="Perugia"/>
    <tag k="addr:housenumber" v="39A"/>
    <tag k="addr:postcode" v="06126"/>
    <tag k="addr:street" v="Via dei Filosofi"/>
    <tag k="contact:facebook" v="https://www.facebook.com/gastronomiafilosofiperugia/"/>
    <tag k="delivery:covid19" v="yes"/>
    <tag k="email" v="gastronomiafilosofi@gmail.com"/>
    <tag k="name" v="Gastronomia Filosofi"/>
    <tag k="opening_hours" v="Tu-Sa 10:00-14:30,16:30-18:00; Su 10:00-15:00"/>
    <tag k="phone" v="+39 075 9977730"/>
    <tag k="phone:mobile" v="+39 347 8923063"/>
    <tag k="shop" v="deli"/>
  </node>
  <node id="3018895433" lat="43.1109104" lon="12.3887751">
    <tag k="addr:city" v="Perugia"/>
    <tag k="addr:housenumber" v="4"/>
    <tag k="addr:postcode" v="06121"/>
    <tag k="addr:street" v="Via Giuseppe Mazzini"/>
    <tag k="amenity" v="fast_food"/>
    <tag k="contact:facebook" v="https://www.facebook.com/reginellapizzeriapg/"/>
    <tag k="contact:whatsapp" v="+39 329 2188918"/>
    <tag k="cuisine" v="pizza"/>
    <tag k="delivery:covid19" v="yes"/>
    <tag k="email" v="Bellezza.andrea@gmail.com"/>
    <tag k="name" v="Pizzeria Reginella"/>
    <tag k="opening_hours:covid19" v="off"/>
    <tag k="phone" v="+39 075 9664082"/>
    <tag k="phone:mobile" v="+39 347 8445180"/>
  </node>
  <node id="3214050410" lat="43.0960386" lon="12.3901754">
    <tag k="addr:city" v="Perugia"/>
    <tag k="addr:housenumber" v="18"/>
    <tag k="addr:postcode" v="06126"/>
    <tag k="addr:street" v="Via della Pallotta"/>
    <tag k="amenity" v="restaurant"/>
    <tag k="contact:facebook" v="https://www.facebook.com/gattoneropg/"/>
    <tag k="cuisine" v="coffee_shop;italian;pizza"/>
    <tag k="delivery:covid19" v="yes"/>
    <tag k="description:it:covid19" v="Vedere pagina facebook per menu, orari e prezzi"/>
    <tag k="email" v="ceciliacherubini@alice.it"/>
    <tag k="name" v="Gatto Nero"/>
    <tag k="opening_hours:covid19" v="off"/>
    <tag k="phone" v="+39 075 31783"/>
    <tag k="takeaway" v="yes"/>
  </node>
  <node id="3668404409" lat="43.0823208" lon="12.3442517">
    <tag k="addr:city" v="Perugia"/>
    <tag k="addr:housenumber" v="6"/>
    <tag k="addr:postcode" v="06132"/>
    <tag k="addr:street" v="Via Tomaso Albinoni"/>
    <tag k="contact:facebook" v="https://www.facebook.com/conadviatomasoalbinoni/"/>
    <tag k="delivery:covid19" v="yes"/>
    <tag k="delivery:description:it" v="Consegna a domicilio per emergenza COVID-19, servizio gratuito per over 65 e persone con disabilità"/>
    <tag k="email" v="emmedue@portal.pac2000a.it"/>
    <tag k="name" v="Conad"/>
    <tag k="phone" v="+39 075 5280874"/>
    <tag k="shop" v="supermarket"/>
  </node>
  <node id="3673371509" lat="43.1092377" lon="12.3898212">
    <tag k="addr:city" v="Perugia"/>
    <tag k="addr:housenumber" v="4"/>
    <tag k="addr:postcode" v="06121"/>
    <tag k="addr:street" v="Via Sant'Ercolano"/>
    <tag k="amenity" v="restaurant"/>
    <tag k="contact:facebook" v="https://www.facebook.com/umbrosocial/"/>
    <tag k="delivery:covid19" v="yes"/>
    <tag k="email" v="prenotazioni.umbro@gmail.com"/>
    <tag k="name" v="Umbrò"/>
    <tag k="phone" v="+39 075 5727809"/>
    <tag k="phone:mobile" v="+39 340 9511639"/>
    <tag k="toilets:wheelchair" v="no"/>
    <tag k="wheelchair" v="no"/>
  </node>
  <node id="3758658170" lat="43.1040352" lon="12.3842061">
    <tag k="addr:city" v="Perugia"/>
    <tag k="addr:country" v="IT"/>
    <tag k="addr:housenumber" v="92"/>
    <tag k="addr:postcode" v="06121"/>
    <tag k="addr:street" v="Via Venti Settembre"/>
    <tag k="amenity" v="restaurant"/>
    <tag k="cuisine" v="italian;pizza"/>
    <tag k="delivery" v="yes"/>
    <tag k="delivery:covid19" v="yes"/>
    <tag k="email" v="corbolia@libero.it"/>
    <tag k="name" v="I Mattarelli"/>
    <tag k="opening_hours" v="Mo 00:00-01:00; Tu 12:00-15:00,18:00-24:00; We-Su 00:00-01:00,12:00-15:00,18:00-24:00"/>
    <tag k="phone" v="+39 075 5721303"/>
    <tag k="phone:mobile" v="+39 331 8779470"/>
    <tag k="takeaway" v="yes"/>
    <tag k="website" v="https://www.imattarelli.it/"/>
  </node>
  <node id="3933578733" lat="43.1278135" lon="12.3652927">
    <tag k="addr:city" v="Perugia"/>
    <tag k="addr:country" v="IT"/>
    <tag k="addr:housenumber" v="81/A07"/>
    <tag k="addr:postcode" v="06131"/>
    <tag k="addr:street" v="Str. Perugia - S. Marco"/>
    <tag k="amenity" v="cafe"/>
    <tag k="contact:facebook" v="https://www.facebook.com/GingilloLounge/"/>
    <tag k="delivery:covid19" v="yes"/>
    <tag k="email" v="gingillocommerciale@libero.it"/>
    <tag k="internet_access" v="wlan"/>
    <tag k="internet_access:fee" v="no"/>
    <tag k="name" v="Gingillo Lounge Cafè"/>
    <tag k="opening_hours:covid19" v="off"/>
    <tag k="outdoor_seating" v="yes"/>
    <tag k="phone" v="+39 075 41442"/>
    <tag k="smoking" v="outside"/>
    <tag k="wheelchair" v="yes"/>
  </node>
  <node id="4529101714" lat="43.1064017" lon="12.3914671">
    <tag k="addr:city" v="Perugia"/>
    <tag k="addr:housenumber" v="106"/>
    <tag k="addr:postcode" v="06121"/>
    <tag k="addr:street" v="Corso Cavour"/>
    <tag k="delivery:covid19" v="yes"/>
    <tag k="email" v="zulicch@hotmail.com"/>
    <tag k="name" v="Il Chiostro delle Erbe"/>
    <tag k="phone" v="+39 075 5729823"/>
    <tag k="shop" v="herbalist"/>
  </node>
  <node id="7381728319" lat="43.0996462" lon="12.3869884">
    <tag k="addr:city" v="Perugia"/>
    <tag k="addr:housenumber" v="24"/>
    <tag k="addr:postcode" v="06124"/>
    <tag k="addr:street" v="Piazzale Anna Frank"/>
    <tag k="delivery:covid19" v="yes"/>
    <tag k="email" v="ortofruttaronca@gmail.com"/>
    <tag k="name" v="Ronca Bruno e Figli Ortofrutta"/>
    <tag k="phone" v="+39 075 30361"/>
    <tag k="shop" v="greengrocer"/>
  </node>
  <node id="7381728320" lat="43.0994641" lon="12.3870689">
    <tag k="addr:city" v="Perugia"/>
    <tag k="addr:housenumber" v="6"/>
    <tag k="addr:postcode" v="06124"/>
    <tag k="addr:street" v="Piazzale Anna Frank"/>
    <tag k="amenity" v="pharmacy"/>
    <tag k="contact:facebook" v="https://www.facebook.com/parafarmacia.tommasone/"/>
    <tag k="delivery:covid19" v="yes"/>
    <tag k="email" v="parafarm.tommasone@libero.it"/>
    <tag k="name" v="Parafarmacia Tommasone Dott.ssa Tiziana"/>
    <tag k="phone:mobile" v="+39 333 4331480"/>
    <tag k="website" v="https://parafarmaciatommasone.blogspot.com/"/>
  </node>
  <node id="7381728321" lat="43.1014637" lon="12.3776221">
    <tag k="addr:city" v="Perugia"/>
    <tag k="addr:housenumber" v="24"/>
    <tag k="addr:postcode" v="06129"/>
    <tag k="addr:street" v="Via Mentana"/>
    <tag k="amenity" v="restaurant"/>
    <tag k="contact:facebook" v="https://www.facebook.com/granvarieta.ita/"/>
    <tag k="cuisine" v="italian"/>
    <tag k="delivery:covid19" v="yes"/>
    <tag k="email" v="Granvarieta.ita@gmail.com"/>
    <tag k="name" v="Gran VariEtà"/>
    <tag k="outdoor_seating" v="yes"/>
    <tag k="phone:mobile" v="+39 339 4040460"/>
  </node>
  <node id="7392694882" lat="43.0931291" lon="12.3628217">
    <tag k="addr:city" v="Perugia"/>
    <tag k="addr:housenumber" v="138a"/>
    <tag k="addr:postcode" v="06128"/>
    <tag k="addr:street" v="Via Madonna Alta"/>
    <tag k="delivery:covid19" v="yes"/>
    <tag k="name" v="Sapore di Mare Perugia"/>
    <tag k="opening_hours" v="Tu-Sa 09:30-13:00,16:00-19:30"/>
    <tag k="operator" v="Sapore di Mare"/>
    <tag k="phone" v="+39 075 5010836"/>
    <tag k="shop" v="seafood"/>
    <tag k="website" v="www.saporedimareperugia.it"/>
  </node>
  <node id="7392694883" lat="43.0881177" lon="12.4327160">
    <tag k="addr:city" v="Ponte San Giovanni"/>
    <tag k="addr:housenumber" v="25"/>
    <tag k="addr:postcode" v="06135"/>
    <tag k="addr:street" v="Via Atalanta"/>
    <tag k="amenity" v="cafe"/>
    <tag k="delivery:covid19" v="yes"/>
    <tag k="email" v="vinoygusto@gmail.com"/>
    <tag k="food" v="cheese;cold cuts"/>
    <tag k="name" v="Vino &amp; Gusto"/>
    <tag k="phone:mobile" v="+39 324 9990411"/>
    <tag k="shop" v="wine"/>
  </node>
  <node id="7402349012" lat="43.1001417" lon="12.3646201">
    <tag k="addr:city" v="Perugia"/>
    <tag k="addr:housenumber" v="35"/>
    <tag k="addr:postcode" v="06128"/>
    <tag k="addr:street" v="Largo Madonna Alta"/>
    <tag k="contact:facebook" v="https://www.facebook.com/Cantina-Sasso-dei-Lupi-290803285103485/"/>
    <tag k="delivery:covid19" v="yes"/>
    <tag k="email" v="madonnalta@sassodeilupi.it"/>
    <tag k="name" v="Cantina Sasso dei Lupi"/>
    <tag k="opening_hours:covid19" v="Mo-Sa 09:00-13:00"/>
    <tag k="phone" v="+39 075 5010303"/>
    <tag k="shop" v="wine"/>
    <tag k="website" v="https://www.sassodeilupi.it/"/>
  </node>
  <node id="7402349013" lat="43.1113694" lon="12.4060991">
    <tag k="addr:city" v="Perugia"/>
    <tag k="addr:housenumber" v="103"/>
    <tag k="addr:postcode" v="06126"/>
    <tag k="addr:street" v="Via Enrico dal Pozzo"/>
    <tag k="contact:facebook" v="https://www.facebook.com/BastianBirraio/"/>
    <tag k="craft" v="brewery"/>
    <tag k="delivery" v="yes"/>
    <tag k="delivery:covid19" v="yes"/>
    <tag k="description:it:covid19" v="Ordine minimo 40€ iva inclusa. Il 10% di tutte le vendite on-line provenienti dalla provincia di Perugia verrà devoluto in beneficenza all'Ospedale S. Maria della Misericordia di Perugia."/>
    <tag k="email" v="produzione@bastianbirraio.it"/>
    <tag k="name" v="BastianBirraio"/>
    <tag k="phone:mobile" v="+39 347 8241127"/>
    <tag k="website" v="https://www.bastianbirraio.it/"/>
  </node>
  <node id="7404927779" lat="43.1169977" lon="12.3782779">
    <tag k="addr:city" v="Perugia"/>
    <tag k="addr:housenumber" v="65"/>
    <tag k="addr:postcode" v="06123"/>
    <tag k="addr:street" v="Via Annibale Vecchi"/>
    <tag k="amenity" v="fast_food"/>
    <tag k="contact:facebook" v="https://www.facebook.com/irosticceriperugia/"/>
    <tag k="cuisine" v="barbecue;burger;pasta;chicken"/>
    <tag k="delivery:covid19" v="yes"/>
    <tag k="description:it:covid19" v="Per info su consegna a domicilio vedere sito web"/>
    <tag k="email" v="info@irosticceriperugia.it"/>
    <tag k="name" v="I Rosticcieri"/>
    <tag k="opening_hours:covid19" v="off"/>
    <tag k="phone" v="+39 075 42302"/>
    <tag k="takeaway:covid19" v="no"/>
    <tag k="website" v="https://www.irosticceriperugia.it/"/>
  </node>
  <node id="7404927780" lat="43.0956802" lon="12.3906791">
    <tag k="addr:city" v="Perugia"/>
    <tag k="addr:housenumber" v="9"/>
    <tag k="addr:postcode" v="06121"/>
    <tag k="addr:street" v="Piazza Gabriele D'annunzio"/>
    <tag k="amenity" v="restaurant"/>
    <tag k="contact:facebook" v="https://www.facebook.com/pizzeriapietrino/"/>
    <tag k="cuisine" v="pizza"/>
    <tag k="delivery" v="yes"/>
    <tag k="delivery:covid19" v="yes"/>
    <tag k="description:it:covid19" v="Consegna a domicilio dalle 18 tutti i giorni tranne il lunedì"/>
    <tag k="email" v="pizzeriapietrino2017@libero.it"/>
    <tag k="name" v="Pizzeria Pietrino"/>
    <tag k="opening_hours:covid19" v="off"/>
    <tag k="phone" v="+39 075 9662925"/>
  </node>
  <node id="7415358214" lat="43.0954158" lon="12.3634668">
    <tag k="contact:facebook" v="https://www.facebook.com/Fattoria-Luchetti-Madonna-Alta-203392586377153/"/>
    <tag k="delivery:covid19" v="yes"/>
    <tag k="description:it:covid19" v="Consegne su comuni di Perugia e Corciano. Vedere pagina facebook per prodotti e prezzi"/>
    <tag k="email" v="daniele.luchetti89@gmail.com"/>
    <tag k="name" v="Fattoria Luchetti"/>
    <tag k="opening_hours" v="Tu,Fr 09:00-19:00; Sa 09:00-15:00"/>
    <tag k="phone" v="+39 392 4842547"/>
    <tag k="shop" v="butcher"/>
    <tag k="website" v="https://www.fattorialuchetti.com/"/>
  </node>
  <node id="7419532975" lat="43.1156122" lon="12.3629431">
    <tag k="addr:city" v="Perugia"/>
    <tag k="addr:housenumber" v="23"/>
    <tag k="addr:postcode" v="06125"/>
    <tag k="addr:street" v="Via Della Filanda"/>
    <tag k="brand" v="Conad"/>
    <tag k="brand:wikidata" v="Q639075"/>
    <tag k="brand:wikipedia" v="it:Conad"/>
    <tag k="delivery:covid19" v="yes"/>
    <tag k="fax" v="+39 075 5847432"/>
    <tag k="name" v="Conad"/>
    <tag k="phone" v="+39 075 5847432"/>
    <tag k="shop" v="supermarket"/>
    <tag k="website" v="https://www.conad.it/ricerca-negozi/negozio.004203.html"/>
  </node>
  <node id="7419706250" lat="43.0719033" lon="12.3169184">
    <tag k="addr:city" v="Perugia"/>
    <tag k="addr:housenumber" v="207/Z10"/>
    <tag k="addr:postcode" v="06132"/>
    <tag k="addr:street" v="Via Pievaiola"/>
    <tag k="amenity" v="pharmacy"/>
    <tag k="contact:facebook" v="https://www.facebook.com/farmaciastrozzacapponi/"/>
    <tag k="delivery:covid19" v="yes"/>
    <tag k="description:it:covid19" v="Consegna farmaci per emergenza COVID19 a over 65 soli e con malattia cronica invalidante e over 75 soli e disagiati, esclusivamente ai residenti all’interno del comune di Perugia"/>
    <tag k="dispensing" v="yes"/>
    <tag k="email" v="farmacia.strozzacapponi@albanetsrl.it"/>
    <tag k="name" v="Farmacia Strozzacapponi"/>
    <tag k="opening_hours" v="Mo-Sa 08:00-20:00"/>
    <tag k="phone" v="+39 075 8501176"/>
  </node>
  <node id="7426658048" lat="43.0956939" lon="12.3904511">
    <tag k="addr:city" v="Perugia"/>
    <tag k="addr:housenumber" v="5"/>
    <tag k="addr:postcode" v="06126"/>
    <tag k="addr:street" v="Piazza Gabriele D'annunzio"/>
    <tag k="contact:facebook" v="https://www.facebook.com/Primopiatto1981/"/>
    <tag k="delivery:covid19" v="yes"/>
    <tag k="email" v="Massimo.fongo@libero.it"/>
    <tag k="name" v="Primo Piatto Pasta fresca"/>
    <tag k="phone" v="+39 075 34033"/>
    <tag k="shop" v="pasta"/>
  </node>
  <node id="7445282575" lat="43.1143975" lon="12.3943672">
    <tag k="addr:city" v="Perugia"/>
    <tag k="addr:housenumber" v="37"/>
    <tag k="addr:postcode" v="06122"/>
    <tag k="addr:street" v="Corso Bersaglieri"/>
    <tag k="amenity" v="restaurant"/>
    <tag k="cuisine" v="regional"/>
    <tag k="delivery:covid19" v="yes"/>
    <tag k="description:it:covid19" v="Consegna a domicilio gratuita Pranzo + Cena Perugia e limitrofi. Per menù e maggiori dettagli vedere la pagina facebook"/>
    <tag k="email" v="rizzo.david@hotmail.it"/>
    <tag k="name" v="Ristorante &quot;Dal Picciotto&quot; Sicilian food"/>
    <tag k="opening_hours:covid19" v="off"/>
    <tag k="phone:mobile" v="+39 339 2061969"/>
    <tag k="takeaway" v="yes"/>
  </node>
  <node id="7445282578" lat="43.1278925" lon="12.3651874">
    <tag k="addr:city" v="Perugia"/>
    <tag k="addr:housenumber" v="81/F"/>
    <tag k="addr:postcode" v="06131"/>
    <tag k="addr:street" v="Strada Perugia - San Marco"/>
    <tag k="amenity" v="restaurant"/>
    <tag k="contact:facebook" v="https://www.facebook.com/piadidea/"/>
    <tag k="cuisine" v="pizza"/>
    <tag k="delivery:covid19" v="yes"/>
    <tag k="description:it:covid19" v="Consegna a domicilio dal 23/04. Servizio a domicilio da giovedì a domenica, prenotazioni entro le 19:30"/>
    <tag k="email" v="claudiabarlozzi@gmail.com"/>
    <tag k="name" v="Pizzeria Piadidea"/>
    <tag k="opening_hours:covid19" v="off"/>
    <tag k="phone" v="+39 075 46738"/>
    <tag k="takeaway" v="yes"/>
    <tag k="takeaway:covid19" v="no"/>
  </node>
  <node id="7445282579" lat="43.1118599" lon="12.3907100">
    <tag k="addr:city" v="Perugia"/>
    <tag k="addr:housenumber" v="5/11"/>
    <tag k="addr:postcode" v="06122"/>
    <tag k="addr:street" v="Via Angusta"/>
    <tag k="amenity" v="restaurant"/>
    <tag k="contact:facebook" v="https://www.facebook.com/ilpaioloperugia/"/>
    <tag k="cuisine" v="italian;pizza"/>
    <tag k="delivery:covid19" v="yes"/>
    <tag k="email" v="Ilpaiolo-ga@hotmail.it"/>
    <tag k="name" v="Il Paiolo"/>
    <tag k="opening_hours:covid19" v="off"/>
    <tag k="phone" v="+39 075 8674944"/>
  </node>
  <node id="7446637943" lat="43.1178239" lon="12.3644498">
    <tag k="addr:city" v="Perugia"/>
    <tag k="addr:housenumber" v="8"/>
    <tag k="addr:postcode" v="06125"/>
    <tag k="addr:street" v="Via della Lana"/>
    <tag k="amenity" v="fast_food"/>
    <tag k="contact:facebook" v="https://www.facebook.com/PizzeriaAcquaFarina/"/>
    <tag k="cuisine" v="pizza"/>
    <tag k="delivery:covid19" v="yes"/>
    <tag k="description:it:covid19" v="Consegna a domicilio gratuita a pranzo e cena"/>
    <tag k="email" v="carancicosimo@yahoo.it"/>
    <tag k="name" v="Pizzeria Acqua e Farina"/>
    <tag k="opening_hours:covid19" v="off"/>
    <tag k="phone:mobile" v="+39 331 4267613; +39 333 8767153"/>
    <tag k="takeaway" v="yes"/>
    <tag k="website" v="https://www.pizzeriaacquaefarina.com/"/>
  </node>
  <node id="7449394684" lat="43.0917091" lon="12.4424833">
    <tag k="addr:city" v="Perugia"/>
    <tag k="addr:housenumber" v="254"/>
    <tag k="addr:postcode" v="06135"/>
    <tag k="addr:street" v="Via Alessandro Manzoni"/>
    <tag k="contact:facebook" v="https://www.facebook.com/momangioio/"/>
    <tag k="delivery:covid19" v="yes"/>
    <tag k="description:covid19:it" v="Consegna gratuita su tutto il comune di Perugia. Vedere pagina facebook per prodotti disponibili"/>
    <tag k="email" v="annalisa89te@hotmail.it"/>
    <tag k="gluten_free" v="yes"/>
    <tag k="name" v="Mo' Mangio Io"/>
    <tag k="opening_hours" v="Tu-Th 07:00-14:00; Fr,Sa 08:00-13:00,16:00-18:00"/>
    <tag k="phone" v="+39 075 3725656"/>
    <tag k="shop" v="bakery"/>
    <tag k="website" v="https://momangioio.business.site/"/>
  </node>
  <node id="7449533690" lat="43.1074365" lon="12.3907958">
    <tag k="addr:city" v="Perugia"/>
    <tag k="addr:housenumber" v="62"/>
    <tag k="addr:postcode" v="06121"/>
    <tag k="addr:street" v="Corso Cavour"/>
    <tag k="amenity" v="pub"/>
    <tag k="delivery:covid19" v="yes"/>
    <tag k="email" v="qubrara@gmail.com"/>
    <tag k="name" v="Birreria Quei bravi ragazzi"/>
    <tag k="phone:mobile" v="+39 348 1625521"/>
  </node>

</osm>